[{"OBJECT_NAME":"CENTISPACE-1 S9","OBJECT_ID":"2025-007D","EPOCH":"2026-03-09T22:07:56.074656","MEAN_MOTION":13.83191394,"ECCENTRICITY":0.00092392,"INCLINATION":54.9818,"RA_OF_ASC_NODE":279.4927,"ARG_OF_PERICENTER":251.979,"MEAN_ANOMALY":108.0161,"EPHEMERIS_TYPE":0,"CLASSIFICATION_TYPE":"U","NORAD_CAT_ID":62578,"ELEMENT_SET_NO":999,"REV_AT_EPOCH":6100,"BSTAR":0.00010536643,"MEAN_MOTION_DOT":-2.5e-7,"MEAN_MOTION_DDOT":0},{"OBJECT_NAME":"SL-16 DEB","OBJECT_ID":"1993-016S","EPOCH":"2026-03-09T22:46:36.159168","MEAN_MOTION":13.84725905,"ECCENTRICITY":0.01315272,"INCLINATION":71.0072,"RA_OF_ASC_NODE":3.4577,"ARG_OF_PERICENTER":335.9891,"MEAN_ANOMALY":92.4102,"EPHEMERIS_TYPE":0,"CLASSIFICATION_TYPE":"U","NORAD_CAT_ID":22608,"ELEMENT_SET_NO":999,"REV_AT_EPOCH":66520,"BSTAR":5.7149739e-5,"MEAN_MOTION_DOT":2.4e-7,"MEAN_MOTION_DDOT":0}]
